{
  "type": "FeatureCollection",
  "features": [
    {
      "type": "Feature",
      "properties": {
        "norad_id": 44231,
        "name": "BEIDOU-2 G8 (C01)",
        "group": "gnss",
        "lat": -1.3880083925864588,
        "lon": -47.13878717637276,
        "alt_km": 35753.70294155113,
        "timestamp": "2025-12-02T06:27:53.257448+00:00",
        "meta_object_name": "BEIDOU-2 G8 (C01)",
        "meta_object_id": "2019-027A",
        "meta_epoch": "2025-12-01T19:38:18.306816",
        "meta_mean_motion": 1.00270736,
        "meta_eccentricity": 0.0008199,
        "meta_inclination": 1.6318,
        "meta_ra_of_asc_node": 74.6903,
        "meta_arg_of_pericenter": 255.2015,
        "meta_mean_anomaly": 180.1944,
        "meta_ephemeris_type": 0,
        "meta_classification_type": "U",
        "meta_norad_cat_id": 44231,
        "meta_element_set_no": 999,
        "meta_rev_at_epoch": 2410,
        "meta_bstar": 0,
        "meta_mean_motion_dot": -2.26e-06,
        "meta_mean_motion_ddot": 0,
        "tle_line1": "1 44231U 19027A   25335.81826744 -.00000226  00000+0  00000+0 0  9990",
        "tle_line2": "2 44231   1.6318  74.6903 0008199 255.2015 180.1944  1.00270736 24101"
      },
      "geometry": {
        "type": "Point",
        "coordinates": [
          -47.13878717637276,
          -1.3880083925864588
        ]
      }
    },
    {
      "type": "Feature",
      "properties": {
        "norad_id": 44299,
        "name": "COSMOS 2534 (758)",
        "group": "gnss",
        "lat": -64.36232190090041,
        "lon": 109.38729562858539,
        "alt_km": 19113.876647578934,
        "timestamp": "2025-12-02T06:27:53.257461+00:00",
        "meta_object_name": "COSMOS 2534 (758)",
        "meta_object_id": "2019-030A",
        "meta_epoch": "2025-12-01T03:07:57.438624",
        "meta_mean_motion": 2.1310195,
        "meta_eccentricity": 0.00091167,
        "meta_inclination": 64.3652,
        "meta_ra_of_asc_node": 199.2842,
        "meta_arg_of_pericenter": 283.4428,
        "meta_mean_anomaly": 193.0266,
        "meta_ephemeris_type": 0,
        "meta_classification_type": "U",
        "meta_norad_cat_id": 44299,
        "meta_element_set_no": 999,
        "meta_rev_at_epoch": 5070,
        "meta_bstar": 0,
        "meta_mean_motion_dot": 9.9e-07,
        "meta_mean_motion_ddot": 0,
        "tle_line1": "1 44299U 19030A   25335.13052591  .00000099  00000+0  00000+0 0  9991",
        "tle_line2": "2 44299  64.3652 199.2842 0009116 283.4428 193.0266  2.13101950 50700"
      },
      "geometry": {
        "type": "Point",
        "coordinates": [
          109.38729562858539,
          -64.36232190090041
        ]
      }
    },
    {
      "type": "Feature",
      "properties": {
        "norad_id": 44337,
        "name": "BEIDOU-3 IGSO-2 (C39)",
        "group": "gnss",
        "lat": 41.06547237864743,
        "lon": -56.73879461941932,
        "alt_km": 35740.90794288434,
        "timestamp": "2025-12-02T06:27:53.257473+00:00",
        "meta_object_name": "BEIDOU-3 IGSO-2 (C39)",
        "meta_object_id": "2019-035A",
        "meta_epoch": "2025-12-01T05:17:49.661952",
        "meta_mean_motion": 1.00274502,
        "meta_eccentricity": 0.00376064,
        "meta_inclination": 55.2223,
        "meta_ra_of_asc_node": 160.6035,
        "meta_arg_of_pericenter": 202.2564,
        "meta_mean_anomaly": 266.4761,
        "meta_ephemeris_type": 0,
        "meta_classification_type": "U",
        "meta_norad_cat_id": 44337,
        "meta_element_set_no": 999,
        "meta_rev_at_epoch": 2368,
        "meta_bstar": 0,
        "meta_mean_motion_dot": -2.5e-07,
        "meta_mean_motion_ddot": 0,
        "tle_line1": "1 44337U 19035A   25335.22071368 -.00000025  00000+0  00000+0 0  9992",
        "tle_line2": "2 44337  55.2223 160.6035 0037606 202.2564 266.4761  1.00274502 23688"
      },
      "geometry": {
        "type": "Point",
        "coordinates": [
          -56.73879461941932,
          41.06547237864743
        ]
      }
    },
    {
      "type": "Feature",
      "properties": {
        "norad_id": 44506,
        "name": "GPS BIII-2  (PRN 18)",
        "group": "gnss",
        "lat": 32.0218614005899,
        "lon": 4.217678160176329,
        "alt_km": 20320.757344313526,
        "timestamp": "2025-12-02T06:27:53.257485+00:00",
        "meta_object_name": "GPS BIII-2  (PRN 18)",
        "meta_object_id": "2019-056A",
        "meta_epoch": "2025-12-01T10:53:28.832352",
        "meta_mean_motion": 2.00565577,
        "meta_eccentricity": 0.00578098,
        "meta_inclination": 55.7254,
        "meta_ra_of_asc_node": 339.0016,
        "meta_arg_of_pericenter": 198.3769,
        "meta_mean_anomaly": 332.9368,
        "meta_ephemeris_type": 0,
        "meta_classification_type": "U",
        "meta_norad_cat_id": 44506,
        "meta_element_set_no": 999,
        "meta_rev_at_epoch": 4610,
        "meta_bstar": 0,
        "meta_mean_motion_dot": -5.6e-07,
        "meta_mean_motion_ddot": 0,
        "tle_line1": "1 44506U 19056A   25335.45380593 -.00000056  00000+0  00000+0 0  9995",
        "tle_line2": "2 44506  55.7254 339.0016 0057809 198.3769 332.9368  2.00565577 46105"
      },
      "geometry": {
        "type": "Point",
        "coordinates": [
          4.217678160176329,
          32.0218614005899
        ]
      }
    },
    {
      "type": "Feature",
      "properties": {
        "norad_id": 44542,
        "name": "BEIDOU-3 M24 (C46)",
        "group": "gnss",
        "lat": 44.77243348561201,
        "lon": -125.33693007222598,
        "alt_km": 21501.31769246174,
        "timestamp": "2025-12-02T06:27:53.257497+00:00",
        "meta_object_name": "BEIDOU-3 M24 (C46)",
        "meta_object_id": "2019-061A",
        "meta_epoch": "2025-12-01T02:32:46.252896",
        "meta_mean_motion": 1.86229258,
        "meta_eccentricity": 0.00095598,
        "meta_inclination": 54.4002,
        "meta_ra_of_asc_node": 189.409,
        "meta_arg_of_pericenter": 23.5384,
        "meta_mean_anomaly": 336.5991,
        "meta_ephemeris_type": 0,
        "meta_classification_type": "U",
        "meta_norad_cat_id": 44542,
        "meta_element_set_no": 999,
        "meta_rev_at_epoch": 4210,
        "meta_bstar": 0,
        "meta_mean_motion_dot": 1.18e-06,
        "meta_mean_motion_ddot": 0,
        "tle_line1": "1 44542U 19061A   25335.10609089  .00000118  00000+0  00000+0 0  9995",
        "tle_line2": "2 44542  54.4002 189.4090 0009559  23.5384 336.5991  1.86229258 42106"
      },
      "geometry": {
        "type": "Point",
        "coordinates": [
          -125.33693007222598,
          44.77243348561201
        ]
      }
    },
    {
      "type": "Feature",
      "properties": {
        "norad_id": 44543,
        "name": "BEIDOU-3 M23 (C45)",
        "group": "gnss",
        "lat": -21.856823140133887,
        "lon": 172.6484618805219,
        "alt_km": 21519.96843757814,
        "timestamp": "2025-12-02T06:27:53.257508+00:00",
        "meta_object_name": "BEIDOU-3 M23 (C45)",
        "meta_object_id": "2019-061B",
        "meta_epoch": "2025-11-30T16:39:35.372160",
        "meta_mean_motion": 1.86229336,
        "meta_eccentricity": 0.00060049,
        "meta_inclination": 54.3987,
        "meta_ra_of_asc_node": 189.3914,
        "meta_arg_of_pericenter": 20.8242,
        "meta_mean_anomaly": 335.9718,
        "meta_ephemeris_type": 0,
        "meta_classification_type": "U",
        "meta_norad_cat_id": 44543,
        "meta_element_set_no": 999,
        "meta_rev_at_epoch": 4209,
        "meta_bstar": 0,
        "meta_mean_motion_dot": 1.15e-06,
        "meta_mean_motion_ddot": 0,
        "tle_line1": "1 44543U 19061B   25334.69415940  .00000115  00000+0  00000+0 0  9997",
        "tle_line2": "2 44543  54.3987 189.3914 0006004  20.8242 335.9718  1.86229336 42092"
      },
      "geometry": {
        "type": "Point",
        "coordinates": [
          172.6484618805219,
          -21.856823140133887
        ]
      }
    },
    {
      "type": "Feature",
      "properties": {
        "norad_id": 44624,
        "name": "EUTELSAT 5 WEST B (EGNOS/PRN 121)",
        "group": "gnss",
        "lat": -0.0348205900914198,
        "lon": 163.28739363203906,
        "alt_km": 35785.310868960514,
        "timestamp": "2025-12-02T06:27:53.257519+00:00",
        "meta_object_name": "EUTELSAT 5 WEST B (EGNOS/PRN 121)",
        "meta_object_id": "2019-067A",
        "meta_epoch": "2025-12-01T18:55:37.396128",
        "meta_mean_motion": 1.00272608,
        "meta_eccentricity": 0.0003618,
        "meta_inclination": 0.0736,
        "meta_ra_of_asc_node": 325.104,
        "meta_arg_of_pericenter": 286.2446,
        "meta_mean_anomaly": 98.4679,
        "meta_ephemeris_type": 0,
        "meta_classification_type": "U",
        "meta_norad_cat_id": 44624,
        "meta_element_set_no": 999,
        "meta_rev_at_epoch": 2245,
        "meta_bstar": 0,
        "meta_mean_motion_dot": -2e-07,
        "meta_mean_motion_ddot": 0,
        "tle_line1": "1 44624U 19067A   25335.78862727 -.00000020  00000+0  00000+0 0  9999",
        "tle_line2": "2 44624   0.0736 325.1040 0003618 286.2446  98.4679  1.00272608 22455"
      },
      "geometry": {
        "type": "Point",
        "coordinates": [
          163.28739363203906,
          -0.0348205900914198
        ]
      }
    }
  ]
}